{
  "norad_id": 56708,
  "name": "STARLINK-30071",
  "history": [
    {
      "epoch": "2026-03-28T14:43:27.163776Z",
      "apogee_km": 486.74383406302604,
      "perigee_km": 484.3676236402962,
      "latitude_deg": -2.4096167883125944e-05,
      "longitude_deg": 120.7424541870691,
      "height_km": 485.4009593730701,
      "semi_major_axis_km": 6863.692728851661,
      "eccentricity": 0.0001731,
      "inclination_deg": 43.0057,
      "raan_deg": 167.6371,
      "arg_perigee_deg": 266.7405,
      "mean_anomaly_deg": 93.3248,
      "mean_motion_rev_day": 15.26743264
    },
    {
      "epoch": "2026-03-29T04:51:17.698752Z",
      "apogee_km": 487.0001443140145,
      "perigee_km": 483.96916899043754,
      "latitude_deg": -2.991947530115697e-05,
      "longitude_deg": -95.12034186716117,
      "height_km": 485.97738528241246,
      "semi_major_axis_km": 6863.621656652226,
      "eccentricity": 0.0002208,
      "inclination_deg": 43.007,
      "raan_deg": 164.3152,
      "arg_perigee_deg": 241.8563,
      "mean_anomaly_deg": 118.2065,
      "mean_motion_rev_day": 15.26766978
    },
    {
      "epoch": "2026-03-30T04:24:25.485120Z",
      "apogee_km": 486.087484885069,
      "perigee_km": 485.00027783346104,
      "latitude_deg": 3.0780098007094905e-05,
      "longitude_deg": -94.9047726851132,
      "height_km": 485.3110799640561,
      "semi_major_axis_km": 6863.680881359264,
      "eccentricity": 7.92e-05,
      "inclination_deg": 43.0007,
      "raan_deg": 158.7804,
      "arg_perigee_deg": 270.9626,
      "mean_anomaly_deg": 89.1135,
      "mean_motion_rev_day": 15.26747217
    },
    {
      "epoch": "2026-03-30T13:49:41.461248Z",
      "apogee_km": 486.52348860704205,
      "perigee_km": 484.66726082362493,
      "latitude_deg": 3.811580380326188e-05,
      "longitude_deg": 121.17815737538596,
      "height_km": 485.34423252762423,
      "semi_major_axis_km": 6863.732374715333,
      "eccentricity": 0.00013522,
      "inclination_deg": 43.0031,
      "raan_deg": 156.5668,
      "arg_perigee_deg": 271.7432,
      "mean_anomaly_deg": 88.3265,
      "mean_motion_rev_day": 15.26730036
    },
    {
      "epoch": "2026-03-30T21:40:42.726720Z",
      "apogee_km": 487.5626032417413,
      "perigee_km": 483.53293391410807,
      "latitude_deg": -1.8029858136364375e-06,
      "longitude_deg": 1.2547399062321472,
      "height_km": 485.34488575118195,
      "semi_major_axis_km": 6863.684768577924,
      "eccentricity": 0.00029355,
      "inclination_deg": 43.0067,
      "raan_deg": 154.7211,
      "arg_perigee_deg": 269.4745,
      "mean_anomaly_deg": 90.577,
      "mean_motion_rev_day": 15.2674592
    },
    {
      "epoch": "2026-03-31T13:22:47.988768Z",
      "apogee_km": 486.7344063339733,
      "perigee_km": 484.35408167855167,
      "latitude_deg": 1.8347903701250963e-05,
      "longitude_deg": 121.3996009688269,
      "height_km": 485.2884347638593,
      "semi_major_axis_km": 6863.681244006262,
      "eccentricity": 0.0001734,
      "inclination_deg": 43.0048,
      "raan_deg": 151.0327,
      "arg_perigee_deg": 271.6081,
      "mean_anomaly_deg": 88.4572,
      "mean_motion_rev_day": 15.26747096
    },
    {
      "epoch": "2026-04-01T20:46:58.173312Z",
      "apogee_km": 486.7059046523218,
      "perigee_km": 484.3667647798511,
      "latitude_deg": -6.734524404317791e-06,
      "longitude_deg": 1.6870719508508596,
      "height_km": 485.32095955300144,
      "semi_major_axis_km": 6863.673334716086,
      "eccentricity": 0.0001704,
      "inclination_deg": 43.0044,
      "raan_deg": 143.6523,
      "arg_perigee_deg": 269.6519,
      "mean_anomaly_deg": 90.4137,
      "mean_motion_rev_day": 15.26749735
    },
    {
      "epoch": "2026-04-02T20:20:04.795008Z",
      "apogee_km": 486.66578996840235,
      "perigee_km": 484.3582311710479,
      "latitude_deg": 4.035241526882638e-05,
      "longitude_deg": 1.9055928439606005,
      "height_km": 485.440831686815,
      "semi_major_axis_km": 6863.649010569725,
      "eccentricity": 0.0001681,
      "inclination_deg": 43.0034,
      "raan_deg": 138.1156,
      "arg_perigee_deg": 262.4564,
      "mean_anomaly_deg": 97.6097,
      "mean_motion_rev_day": 15.26757851
    },
    {
      "epoch": "2026-04-02T20:20:04.795872Z",
      "apogee_km": 486.665584058931,
      "perigee_km": 484.35843708051925,
      "latitude_deg": 3.801451374543883e-05,
      "longitude_deg": 1.905586741156551,
      "height_km": 485.44080465831183,
      "semi_major_axis_km": 6863.649010569725,
      "eccentricity": 0.00016807,
      "inclination_deg": 43.0034,
      "raan_deg": 138.1156,
      "arg_perigee_deg": 262.4564,
      "mean_anomaly_deg": 97.6097,
      "mean_motion_rev_day": 15.26757851
    },
    {
      "epoch": "2026-04-03T04:11:07.019520Z",
      "apogee_km": 486.6622350005173,
      "perigee_km": 484.3681278953909,
      "latitude_deg": -2.4730024449918953e-06,
      "longitude_deg": -118.02153494956687,
      "height_km": 485.50004325264234,
      "semi_major_axis_km": 6863.652181447954,
      "eccentricity": 0.00016712,
      "inclination_deg": 43.0032,
      "raan_deg": 136.2702,
      "arg_perigee_deg": 259.5752,
      "mean_anomaly_deg": 100.4911,
      "mean_motion_rev_day": 15.26756793
    },
    {
      "epoch": "2026-04-04T11:35:17.058048Z",
      "apogee_km": 487.07736078335984,
      "perigee_km": 484.02837247080697,
      "latitude_deg": -1.949984805153661e-05,
      "longitude_deg": 122.268652478484,
      "height_km": 485.0798348563101,
      "semi_major_axis_km": 6863.689866627084,
      "eccentricity": 0.00022211,
      "inclination_deg": 43.0056,
      "raan_deg": 128.8919,
      "arg_perigee_deg": 279.48,
      "mean_anomaly_deg": 80.58,
      "mean_motion_rev_day": 15.26744219
    },
    {
      "epoch": "2026-04-05T03:17:21.945984Z",
      "apogee_km": 486.74752617025206,
      "perigee_km": 484.3655499648012,
      "latitude_deg": 1.8731165770639803e-05,
      "longitude_deg": -117.58810574471377,
      "height_km": 485.3870856527459,
      "semi_major_axis_km": 6863.693538067527,
      "eccentricity": 0.00017352,
      "inclination_deg": 43.0047,
      "raan_deg": 125.2003,
      "arg_perigee_deg": 267.4504,
      "mean_anomaly_deg": 92.6149,
      "mean_motion_rev_day": 15.26742994
    },
    {
      "epoch": "2026-04-05T18:59:27.576960Z",
      "apogee_km": 486.6930193611497,
      "perigee_km": 484.4801548766627,
      "latitude_deg": -3.237935002467869e-05,
      "longitude_deg": 2.554235860829742,
      "height_km": 485.5554160722486,
      "semi_major_axis_km": 6863.723587118906,
      "eccentricity": 0.0001612,
      "inclination_deg": 43.006,
      "raan_deg": 121.511,
      "arg_perigee_deg": 260.0465,
      "mean_anomaly_deg": 100.0204,
      "mean_motion_rev_day": 15.26732968
    },
    {
      "epoch": "2026-04-06T02:50:30.112512Z",
      "apogee_km": 486.8020535516998,
      "perigee_km": 484.3695501907159,
      "latitude_deg": -2.3738717794672074e-05,
      "longitude_deg": -117.371237362458,
      "height_km": 485.35702541497966,
      "semi_major_axis_km": 6863.722801871208,
      "eccentricity": 0.0001772,
      "inclination_deg": 43.0075,
      "raan_deg": 119.6685,
      "arg_perigee_deg": 270.3156,
      "mean_anomaly_deg": 89.7492,
      "mean_motion_rev_day": 15.2673323
    },
    {
      "epoch": "2026-04-07T02:23:36.804192Z",
      "apogee_km": 486.5522433324395,
      "perigee_km": 484.5425565401374,
      "latitude_deg": -7.028258440923568e-06,
      "longitude_deg": -117.15384449840414,
      "height_km": 485.5546909558252,
      "semi_major_axis_km": 6863.684399936288,
      "eccentricity": 0.0001464,
      "inclination_deg": 43.0052,
      "raan_deg": 114.131,
      "arg_perigee_deg": 256.7718,
      "mean_anomaly_deg": 103.297,
      "mean_motion_rev_day": 15.26746043
    },
    {
      "epoch": "2026-04-07T18:05:41.661888Z",
      "apogee_km": 486.5399011363661,
      "perigee_km": 484.56453137992594,
      "latitude_deg": 1.0501002189368061e-05,
      "longitude_deg": 2.9908003689613403,
      "height_km": 485.5545857161253,
      "semi_major_axis_km": 6863.689216258145,
      "eccentricity": 0.0001439,
      "inclination_deg": 43.0048,
      "raan_deg": 110.4407,
      "arg_perigee_deg": 256.8272,
      "mean_anomaly_deg": 103.2419,
      "mean_motion_rev_day": 15.26744436
    },
    {
      "epoch": "2026-04-08T00:22:31.423008Z",
      "apogee_km": 486.5659453632861,
      "perigee_km": 484.52550976203656,
      "latitude_deg": -7.849070279578825e-07,
      "longitude_deg": -92.95058096083245,
      "height_km": 485.54104301952896,
      "semi_major_axis_km": 6863.682727562661,
      "eccentricity": 0.00014864,
      "inclination_deg": 43.005,
      "raan_deg": 108.9646,
      "arg_perigee_deg": 257.6641,
      "mean_anomaly_deg": 102.4044,
      "mean_motion_rev_day": 15.26746601
    }
  ]
}